{"type": "FeatureCollection", "features": [{"type": "Feature", "properties": {"norad_id": 28890, "name": "BEIJING 1", "group": "dmc", "lat": -80.37834915661402, "lon": -125.11795831364395, "alt_km": 695.523888000409, "timestamp": "2025-12-12T09:49:08.394513+00:00", "meta": {"OBJECT_NAME": "BEIJING 1", "OBJECT_ID": "2005-043A", "EPOCH": "2025-12-12T05:19:49.484064", "MEAN_MOTION": 14.63366059, "ECCENTRICITY": 0.0015261, "INCLINATION": 98.2653, "RA_OF_ASC_NODE": 113.7274, "ARG_OF_PERICENTER": 142.6372, "MEAN_ANOMALY": 217.5894, "EPHEMERIS_TYPE": 0, "CLASSIFICATION_TYPE": "U", "NORAD_CAT_ID": 28890, "ELEMENT_SET_NO": 999, "REV_AT_EPOCH": 7330, "BSTAR": 0.00017294, "MEAN_MOTION_DOT": 8.46e-06, "MEAN_MOTION_DDOT": 0}, "tle": {"line1": "1 28890U 05043A   25346.22210051  .00000846  00000+0  17294-3 0  9995", "line2": "2 28890  98.2653 113.7274 0015261 142.6372 217.5894 14.63366059 73309"}}, "geometry": {"type": "Point", "coordinates": [-125.11795831364395, -80.37834915661402]}}, {"type": "Feature", "properties": {"norad_id": 33320, "name": "HUANJING 1A (HJ-1A)", "group": "dmc", "lat": -82.15990232419222, "lon": 77.11458689791615, "alt_km": 634.5261074975078, "timestamp": "2025-12-12T09:49:08.394536+00:00", "meta": {"OBJECT_NAME": "HUANJING 1A (HJ-1A)", "OBJECT_ID": "2008-041A", "EPOCH": "2025-12-12T05:22:29.621280", "MEAN_MOTION": 14.83393215, "ECCENTRICITY": 0.0020197, "INCLINATION": 97.6545, "RA_OF_ASC_NODE": 334.5442, "ARG_OF_PERICENTER": 36.1436, "MEAN_ANOMALY": 324.1139, "EPHEMERIS_TYPE": 0, "CLASSIFICATION_TYPE": "U", "NORAD_CAT_ID": 33320, "ELEMENT_SET_NO": 999, "REV_AT_EPOCH": 93068, "BSTAR": 0.00032171, "MEAN_MOTION_DOT": 2.597e-05, "MEAN_MOTION_DDOT": 0}, "tle": {"line1": "1 33320U 08041A   25346.22395395  .00002597  00000+0  32171-3 0  9991", "line2": "2 33320  97.6545 334.5442 0020197  36.1436 324.1139 14.83393215930684"}}, "geometry": {"type": "Point", "coordinates": [77.11458689791615, -82.15990232419222]}}, {"type": "Feature", "properties": {"norad_id": 33321, "name": "HUANJING 1B (HJ-1B)", "group": "dmc", "lat": 48.702829038403166, "lon": 167.20912981563163, "alt_km": 600.2752485611563, "timestamp": "2025-12-12T09:49:08.394551+00:00", "meta": {"OBJECT_NAME": "HUANJING 1B (HJ-1B)", "OBJECT_ID": "2008-041B", "EPOCH": "2025-12-12T05:59:46.664160", "MEAN_MOTION": 14.82820234, "ECCENTRICITY": 0.0038186, "INCLINATION": 97.6403, "RA_OF_ASC_NODE": 338.267, "ARG_OF_PERICENTER": 77.2093, "MEAN_ANOMALY": 283.3384, "EPHEMERIS_TYPE": 0, "CLASSIFICATION_TYPE": "U", "NORAD_CAT_ID": 33321, "ELEMENT_SET_NO": 999, "REV_AT_EPOCH": 93070, "BSTAR": 0.00033419, "MEAN_MOTION_DOT": 2.687e-05, "MEAN_MOTION_DDOT": 0}, "tle": {"line1": "1 33321U 08041B   25346.24984565  .00002687  00000+0  33419-3 0  9993", "line2": "2 33321  97.6403 338.2670 0038186  77.2093 283.3384 14.82820234930700"}}, "geometry": {"type": "Point", "coordinates": [167.20912981563163, 48.702829038403166]}}, {"type": "Feature", "properties": {"norad_id": 33446, "name": "YAOGAN-4", "group": "dmc", "lat": 41.638454975955206, "lon": -90.59589959636867, "alt_km": 615.4690216809886, "timestamp": "2025-12-12T09:49:08.394564+00:00", "meta": {"OBJECT_NAME": "YAOGAN-4", "OBJECT_ID": "2008-061A", "EPOCH": "2025-12-11T19:03:10.073376", "MEAN_MOTION": 14.82677773, "ECCENTRICITY": 0.00136364, "INCLINATION": 97.9179, "RA_OF_ASC_NODE": 275.9025, "ARG_OF_PERICENTER": 326.6885, "MEAN_ANOMALY": 33.3469, "EPHEMERIS_TYPE": 0, "CLASSIFICATION_TYPE": "U", "NORAD_CAT_ID": 33446, "ELEMENT_SET_NO": 999, "REV_AT_EPOCH": 91789, "BSTAR": 0.00029431307, "MEAN_MOTION_DOT": 2.323e-05, "MEAN_MOTION_DDOT": 0}, "tle": {"line1": "1 33446U 08061A   25345.79386659  .00002323  00000+0  29431-3 0  9998", "line2": "2 33446  97.9179 275.9025 0013636 326.6885  33.3469 14.82677773917895"}}, "geometry": {"type": "Point", "coordinates": [-90.59589959636867, 41.638454975955206]}}, {"type": "Feature", "properties": {"norad_id": 35681, "name": "DEIMOS-1", "group": "dmc", "lat": -1.222023449540302, "lon": -33.138116292343376, "alt_km": 648.8579306186111, "timestamp": "2025-12-12T09:49:08.394575+00:00", "meta": {"OBJECT_NAME": "DEIMOS-1", "OBJECT_ID": "2009-041A", "EPOCH": "2025-12-12T04:06:58.405248", "MEAN_MOTION": 14.74952034, "ECCENTRICITY": 0.0002726, "INCLINATION": 97.7151, "RA_OF_ASC_NODE": 146.8011, "ARG_OF_PERICENTER": 80.473, "MEAN_ANOMALY": 279.6787, "EPHEMERIS_TYPE": 0, "CLASSIFICATION_TYPE": "U", "NORAD_CAT_ID": 35681, "ELEMENT_SET_NO": 999, "REV_AT_EPOCH": 87931, "BSTAR": 0.00020417, "MEAN_MOTION_DOT": 1.324e-05, "MEAN_MOTION_DDOT": 0}, "tle": {"line1": "1 35681U 09041A   25346.17150932  .00001324  00000+0  20417-3 0  9991", "line2": "2 35681  97.7151 146.8011 0002726  80.4730 279.6787 14.74952034879318"}}, "geometry": {"type": "Point", "coordinates": [-33.138116292343376, -1.222023449540302]}}, {"type": "Feature", "properties": {"norad_id": 35683, "name": "UK-DMC 2", "group": "dmc", "lat": -15.33467421947311, "lon": -60.849158930670235, "alt_km": 648.1332072137948, "timestamp": "2025-12-12T09:49:08.394586+00:00", "meta": {"OBJECT_NAME": "UK-DMC 2", "OBJECT_ID": "2009-041C", "EPOCH": "2025-12-12T04:03:15.343776", "MEAN_MOTION": 14.75620359, "ECCENTRICITY": 0.0001462, "INCLINATION": 97.8562, "RA_OF_ASC_NODE": 121.0874, "ARG_OF_PERICENTER": 96.2288, "MEAN_ANOMALY": 263.9088, "EPHEMERIS_TYPE": 0, "CLASSIFICATION_TYPE": "U", "NORAD_CAT_ID": 35683, "ELEMENT_SET_NO": 999, "REV_AT_EPOCH": 87898, "BSTAR": 0.00025895, "MEAN_MOTION_DOT": 1.718e-05, "MEAN_MOTION_DDOT": 0}, "tle": {"line1": "1 35683U 09041C   25346.16892759  .00001718  00000+0  25895-3 0  9994", "line2": "2 35683  97.8562 121.0874 0001462  96.2288 263.9088 14.75620359878983"}}, "geometry": {"type": "Point", "coordinates": [-60.849158930670235, -15.33467421947311]}}, {"type": "Feature", "properties": {"norad_id": 40715, "name": "DMC3-FM1", "group": "dmc", "lat": -52.013491746864545, "lon": 23.67746374498413, "alt_km": 619.2280795549832, "timestamp": "2025-12-12T09:49:08.394597+00:00", "meta": {"OBJECT_NAME": "DMC3-FM1", "OBJECT_ID": "2015-032A", "EPOCH": "2025-12-12T05:32:28.442400", "MEAN_MOTION": 14.85438097, "ECCENTRICITY": 0.0004739, "INCLINATION": 97.669, "RA_OF_ASC_NODE": 213.4419, "ARG_OF_PERICENTER": 323.8597, "MEAN_ANOMALY": 36.2298, "EPHEMERIS_TYPE": 0, "CLASSIFICATION_TYPE": "U", "NORAD_CAT_ID": 40715, "ELEMENT_SET_NO": 999, "REV_AT_EPOCH": 56215, "BSTAR": 0.00011807, "MEAN_MOTION_DOT": 9.66e-06, "MEAN_MOTION_DDOT": 0}, "tle": {"line1": "1 40715U 15032A   25346.23088475  .00000966  00000+0  11807-3 0  9995", "line2": "2 40715  97.6690 213.4419 0004739 323.8597  36.2298 14.85438097562158"}}, "geometry": {"type": "Point", "coordinates": [23.67746374498413, -52.013491746864545]}}, {"type": "Feature", "properties": {"norad_id": 40716, "name": "DMC3-FM2", "group": "dmc", "lat": 66.28936355085547, "lon": 52.93729039150489, "alt_km": 608.8306851681664, "timestamp": "2025-12-12T09:49:08.394607+00:00", "meta": {"OBJECT_NAME": "DMC3-FM2", "OBJECT_ID": "2015-032B", "EPOCH": "2025-12-12T04:27:52.185024", "MEAN_MOTION": 14.85439986, "ECCENTRICITY": 0.0005364, "INCLINATION": 97.6745, "RA_OF_ASC_NODE": 214.8421, "ARG_OF_PERICENTER": 328.0037, "MEAN_ANOMALY": 32.0852, "EPHEMERIS_TYPE": 0, "CLASSIFICATION_TYPE": "U", "NORAD_CAT_ID": 40716, "ELEMENT_SET_NO": 999, "REV_AT_EPOCH": 56214, "BSTAR": 0.0001773, "MEAN_MOTION_DOT": 1.477e-05, "MEAN_MOTION_DDOT": 0}, "tle": {"line1": "1 40716U 15032B   25346.18602066  .00001477  00000+0  17730-3 0  9997", "line2": "2 40716  97.6745 214.8421 0005364 328.0037  32.0852 14.85439986562146"}}, "geometry": {"type": "Point", "coordinates": [52.93729039150489, 66.28936355085547]}}, {"type": "Feature", "properties": {"norad_id": 40717, "name": "DMC3-FM3", "group": "dmc", "lat": -3.1840934453779854, "lon": -142.88003132627207, "alt_km": 612.7615249641403, "timestamp": "2025-12-12T09:49:08.394617+00:00", "meta": {"OBJECT_NAME": "DMC3-FM3", "OBJECT_ID": "2015-032C", "EPOCH": "2025-12-12T04:59:00.076128", "MEAN_MOTION": 14.85431202, "ECCENTRICITY": 0.0004658, "INCLINATION": 97.6801, "RA_OF_ASC_NODE": 216.4955, "ARG_OF_PERICENTER": 330.8856, "MEAN_ANOMALY": 29.2099, "EPHEMERIS_TYPE": 0, "CLASSIFICATION_TYPE": "U", "NORAD_CAT_ID": 40717, "ELEMENT_SET_NO": 999, "REV_AT_EPOCH": 56215, "BSTAR": 0.00020529, "MEAN_MOTION_DOT": 1.718e-05, "MEAN_MOTION_DDOT": 0}, "tle": {"line1": "1 40717U 15032C   25346.20763977  .00001718  00000+0  20529-3 0  9998", "line2": "2 40717  97.6801 216.4955 0004658 330.8856  29.2099 14.85431202562150"}}, "geometry": {"type": "Point", "coordinates": [-142.88003132627207, -3.1840934453779854]}}]}